EUTELSAT 7A             
1 28187U 04008A   25205.73917775  .00000088  00000+0  00000+0 0  9992
2 28187   4.9952  75.9380 0000861  23.5197 330.1328  1.00269356 78064
EUTELSAT 174A           
1 28924U 05052A   25205.80137704 -.00000005  00000+0  00000+0 0  9995
2 28924   3.3866  80.6283 0005934  46.1321 278.4579  1.00273167 49044
EUTELSAT HOTBIRD 13E    
1 28946U 06007B   25205.82885050 -.00000142  00000+0  00000+0 0  9998
2 28946   1.2238  89.5231 0006435 182.6101 281.6588  0.98117785 71037
EUTELSAT HOTBIRD 13B    
1 29270U 06032A   25205.92786414  .00000143  00000+0  00000+0 0  9992
2 29270   0.8132  85.9159 0003813  38.2841 185.7861  1.00269467 44025
EUTELSAT HOTBIRD 13C    
1 33459U 08065A   25205.83578385 -.00000114  00000+0  00000+0 0  9999
2 33459   2.1057  83.1272 0003161  50.5723  97.4495  1.00271811 44060
EUTELSAT 36B            
1 36101U 09065A   25205.94226225  .00000100  00000+0  00000+0 0  9996
2 36101   0.0509   1.7467 0005539 123.8584 206.9636  1.00272137 57428
EUTELSAT KA-SAT 9A      
1 37258U 10069A   25205.84003054  .00000049  00000+0  00000+0 0  9990
2 37258   0.0601 304.7132 0003528 189.4681 119.9902  1.00269524 40722
EUTELSAT 7 WEST A       
1 37816U 11051A   25205.83682387 -.00000072  00000+0  00000+0 0  9990
2 37816   0.0606 358.0067 0004677 143.4514  95.2586  1.00271623 50613
